COSMOS 2564 (761)       
1 54377U 22161A   25332.86725584  .00000078  00000+0  00000+0 0  9991
2 54377  64.7375 199.3598 0008775 207.0282 153.0121  2.13101993 23368
COSMOS 2569 (703K)      
1 57517U 23114A   25332.88070465  .00000008  00000+0  00000+0 0  9995
2 57517  65.1868  79.3819 0009978 286.9994  72.8984  2.13103880 17998
COSMOS 2584 (704K)      
1 63130U 25042A   25330.42095954  .00000018  00000+0  00000+0 0  9994
2 63130  64.9668  79.7019 0007521 212.3772 147.5850  2.13103062  5728
COSMOS 2596 (708K)      
1 65590U 25206B   25332.14305111 -.00000015  00000+0  00000+0 0  9996
2 65590  64.7523 321.9830 0014072 304.5667  55.1780  2.13100428  1610
