{
  "type": "FeatureCollection",
  "features": [
    {
      "type": "Feature",
      "properties": {
        "OBJECT_NAME": "COSMOS 2564 (761)",
        "OBJECT_ID": "2022-161A",
        "EPOCH": "2025-11-28T20:48:50.904576",
        "MEAN_MOTION": 2.13101993,
        "ECCENTRICITY": 0.00087756,
        "INCLINATION": 64.7375,
        "RA_OF_ASC_NODE": 199.3598,
        "ARG_OF_PERICENTER": 207.0282,
        "MEAN_ANOMALY": 153.0121,
        "EPHEMERIS_TYPE": 0,
        "CLASSIFICATION_TYPE": "U",
        "NORAD_CAT_ID": 54377,
        "ELEMENT_SET_NO": 999,
        "REV_AT_EPOCH": 2336,
        "BSTAR": 0,
        "MEAN_MOTION_DOT": 7.8e-07,
        "MEAN_MOTION_DDOT": 0,
        "norad_id": 54377,
        "name": "COSMOS 2564 (761)",
        "group": "glo-ops",
        "longitude_deg": NaN,
        "latitude_deg": NaN,
        "alt_km": NaN,
        "orbit_class": "HEO",
        "timestamp": "2025-11-30T04:52:16.867790+00:00"
      },
      "geometry": {
        "type": "Point",
        "coordinates": [
          NaN,
          NaN
        ]
      }
    },
    {
      "type": "Feature",
      "properties": {
        "OBJECT_NAME": "COSMOS 2569 (703K)",
        "OBJECT_ID": "2023-114A",
        "EPOCH": "2025-11-28T21:08:12.881760",
        "MEAN_MOTION": 2.1310388,
        "ECCENTRICITY": 0.00099784,
        "INCLINATION": 65.1868,
        "RA_OF_ASC_NODE": 79.3819,
        "ARG_OF_PERICENTER": 286.9994,
        "MEAN_ANOMALY": 72.8984,
        "EPHEMERIS_TYPE": 0,
        "CLASSIFICATION_TYPE": "U",
        "NORAD_CAT_ID": 57517,
        "ELEMENT_SET_NO": 999,
        "REV_AT_EPOCH": 1799,
        "BSTAR": 0,
        "MEAN_MOTION_DOT": 8e-08,
        "MEAN_MOTION_DDOT": 0,
        "norad_id": 57517,
        "name": "COSMOS 2569 (703K)",
        "group": "glo-ops",
        "longitude_deg": NaN,
        "latitude_deg": NaN,
        "alt_km": NaN,
        "orbit_class": "HEO",
        "timestamp": "2025-11-30T04:52:16.879080+00:00"
      },
      "geometry": {
        "type": "Point",
        "coordinates": [
          NaN,
          NaN
        ]
      }
    },
    {
      "type": "Feature",
      "properties": {
        "OBJECT_NAME": "COSMOS 2584 (704K)",
        "OBJECT_ID": "2025-042A",
        "EPOCH": "2025-11-26T10:06:10.904256",
        "MEAN_MOTION": 2.13103062,
        "ECCENTRICITY": 0.00075218,
        "INCLINATION": 64.9668,
        "RA_OF_ASC_NODE": 79.7019,
        "ARG_OF_PERICENTER": 212.3772,
        "MEAN_ANOMALY": 147.585,
        "EPHEMERIS_TYPE": 0,
        "CLASSIFICATION_TYPE": "U",
        "NORAD_CAT_ID": 63130,
        "ELEMENT_SET_NO": 999,
        "REV_AT_EPOCH": 572,
        "BSTAR": 0,
        "MEAN_MOTION_DOT": 1.8e-07,
        "MEAN_MOTION_DDOT": 0,
        "norad_id": 63130,
        "name": "COSMOS 2584 (704K)",
        "group": "glo-ops",
        "longitude_deg": NaN,
        "latitude_deg": NaN,
        "alt_km": NaN,
        "orbit_class": "HEO",
        "timestamp": "2025-11-30T04:52:16.907412+00:00"
      },
      "geometry": {
        "type": "Point",
        "coordinates": [
          NaN,
          NaN
        ]
      }
    },
    {
      "type": "Feature",
      "properties": {
        "OBJECT_NAME": "COSMOS 2596 (708K)",
        "OBJECT_ID": "2025-206B",
        "EPOCH": "2025-11-28T03:25:59.615904",
        "MEAN_MOTION": 2.13100428,
        "ECCENTRICITY": 0.0014072,
        "INCLINATION": 64.7523,
        "RA_OF_ASC_NODE": 321.983,
        "ARG_OF_PERICENTER": 304.5667,
        "MEAN_ANOMALY": 55.178,
        "EPHEMERIS_TYPE": 0,
        "CLASSIFICATION_TYPE": "U",
        "NORAD_CAT_ID": 65590,
        "ELEMENT_SET_NO": 999,
        "REV_AT_EPOCH": 161,
        "BSTAR": 0,
        "MEAN_MOTION_DOT": -1.5e-07,
        "MEAN_MOTION_DDOT": 0,
        "norad_id": 65590,
        "name": "COSMOS 2596 (708K)",
        "group": "glo-ops",
        "longitude_deg": NaN,
        "latitude_deg": NaN,
        "alt_km": NaN,
        "orbit_class": "HEO",
        "timestamp": "2025-11-30T04:52:16.923245+00:00"
      },
      "geometry": {
        "type": "Point",
        "coordinates": [
          NaN,
          NaN
        ]
      }
    }
  ]
}